SHIJIAN-16 (SJ-16)      
1 39358U 13057A   25331.17932877  .00002235  00000+0  22309-3 0  9992
2 39358  74.9735  19.0954 0017076 356.7172   3.3901 14.91922031656213
SL-4 R/B                
1 39679U 14021B   25330.67962012  .00016099  00000+0  38722-3 0  9997
2 39679  51.6069 118.6101 0103094  88.4676 272.8113 15.36082508640425
ALOS-2                  
1 39766U 14029A   25331.18747797  .00002635  00000+0  35954-3 0  9995
2 39766  97.9230  66.2547 0001385  99.0804 261.0565 14.79483234621717
YAOGAN-29               
1 41038U 15069A   25331.16474375  .00000578  00000+0  78138-4 0  9998
2 41038  98.0235 354.2854 0001236  21.9516 338.1750 14.82856538540682
ASTRO-H (HITOMI)        
1 41337U 16012A   25331.14854030  .00003832  00000+0  22930-3 0  9991
2 41337  31.0005 297.8734 0009567  20.0775 340.0238 15.09205407536723
HXMT (HUIYAN)           
1 42758U 17034A   25331.17715174  .00007630  00000+0  39585-3 0  9996
2 42758  43.0132 225.9774 0033691 305.4034  54.3668 15.16046417466977
CZ-2C R/B               
1 43521U 18054D   25331.17772706  .00099746  00000+0  76673-3 0  9990
2 43521  35.1353 286.1348 0020117 343.3172  16.6896 15.70462277412603
SAOCOM 1A               
1 43641U 18076A   25331.14448022  .00000593  00000+0  80996-4 0  9991
2 43641  97.8858 155.7933 0001584  89.3393 270.8002 14.82151307386177
H-2A R/B                
1 43682U 18084L   25331.00239285  .00020311  00000+0  56316-3 0  9997
2 43682  98.8789 161.8301 0028540  20.1751 340.0609 15.36584596389980
SAOCOM 1B               
1 46265U 20059A   25330.90568856  .00000628  00000+0  85394-4 0  9997
2 46265  97.8846 154.6594 0001338  90.1446 269.9920 14.82159789283521
CSS (TIANHE)            
1 48274U 21035A   25330.76049338  .00023599  00000+0  30515-3 0  9993
2 48274  41.4669 113.6485 0010761 276.2599  83.7013 15.58310216261531
COSMOS 2550             
1 48865U 21056A   25330.81540081 -.00000141  00000+0  15339-5 0  9997
2 48865  67.1432 352.1024 0008298 270.4119  89.6085 15.33840302247686
